{
  "type": "FeatureCollection",
  "features": [
    {
      "type": "Feature",
      "properties": {
        "norad_id": 66429,
        "name": "STARLINK-35533",
        "group": "last-30-days",
        "lat": 7.824421921566364,
        "lon": -131.76008401099605,
        "alt_km": 442.8420377625689,
        "timestamp": "2025-12-11T05:00:25.073876+00:00",
        "meta_object_name": "STARLINK-35533",
        "meta_object_id": "2025-259H",
        "meta_epoch": "2025-12-10T22:03:21.990528",
        "meta_mean_motion": 15.40709535,
        "meta_eccentricity": 3.812e-05,
        "meta_inclination": 42.9981,
        "meta_ra_of_asc_node": 58.3901,
        "meta_arg_of_pericenter": 325.4753,
        "meta_mean_anomaly": 34.6079,
        "meta_ephemeris_type": 0,
        "meta_classification_type": "U",
        "meta_norad_cat_id": 66429,
        "meta_element_set_no": 999,
        "meta_rev_at_epoch": 588,
        "meta_bstar": 0.0015445479,
        "meta_mean_motion_dot": 0.00064786,
        "meta_mean_motion_ddot": 0,
        "tle_line1": "1 66429U 25259H   25344.91900452  .00064786  00000+0  15445-2 0  9999",
        "tle_line2": "2 66429  42.9981  58.3901 0000381 325.4753  34.6079 15.40709535  5888"
      },
      "geometry": {
        "type": "Point",
        "coordinates": [
          -131.76008401099605,
          7.824421921566364
        ]
      }
    },
    {
      "type": "Feature",
      "properties": {
        "norad_id": 66430,
        "name": "STARLINK-35470",
        "group": "last-30-days",
        "lat": -0.6027770078915331,
        "lon": -122.66278491322554,
        "alt_km": 444.1254224028662,
        "timestamp": "2025-12-11T05:00:25.073888+00:00",
        "meta_object_name": "STARLINK-35470",
        "meta_object_id": "2025-259J",
        "meta_epoch": "2025-12-10T22:00:03.000096",
        "meta_mean_motion": 15.40764241,
        "meta_eccentricity": 0.00014467,
        "meta_inclination": 43.0005,
        "meta_ra_of_asc_node": 58.373,
        "meta_arg_of_pericenter": 278.3164,
        "meta_mean_anomaly": 81.4001,
        "meta_ephemeris_type": 0,
        "meta_classification_type": "U",
        "meta_norad_cat_id": 66430,
        "meta_element_set_no": 999,
        "meta_rev_at_epoch": 598,
        "meta_bstar": -0.0035505352,
        "meta_mean_motion_dot": -0.00146126,
        "meta_mean_motion_ddot": 0,
        "tle_line1": "1 66430U 25259J   25344.91670139 -.00146126  00000+0 -35505-2 0  9997",
        "tle_line2": "2 66430  43.0005  58.3730 0001446 278.3164  81.4001 15.40764241  5985"
      },
      "geometry": {
        "type": "Point",
        "coordinates": [
          -122.66278491322554,
          -0.6027770078915331
        ]
      }
    },
    {
      "type": "Feature",
      "properties": {
        "norad_id": 66431,
        "name": "STARLINK-35439",
        "group": "last-30-days",
        "lat": -9.056055428476476,
        "lon": -113.49303499220476,
        "alt_km": 444.8251961410615,
        "timestamp": "2025-12-11T05:00:25.073899+00:00",
        "meta_object_name": "STARLINK-35439",
        "meta_object_id": "2025-259K",
        "meta_epoch": "2025-12-10T22:00:03.000096",
        "meta_mean_motion": 15.40762016,
        "meta_eccentricity": 0.00010827,
        "meta_inclination": 43.0005,
        "meta_ra_of_asc_node": 58.3413,
        "meta_arg_of_pericenter": 267.5335,
        "meta_mean_anomaly": 104.6496,
        "meta_ephemeris_type": 0,
        "meta_classification_type": "U",
        "meta_norad_cat_id": 66431,
        "meta_element_set_no": 999,
        "meta_rev_at_epoch": 598,
        "meta_bstar": -0.0037819706,
        "meta_mean_motion_dot": -0.00155427,
        "meta_mean_motion_ddot": 0,
        "tle_line1": "1 66431U 25259K   25344.91670139 -.00155427  00000+0 -37820-2 0  9994",
        "tle_line2": "2 66431  43.0005  58.3413 0001082 267.5335 104.6496 15.40762016  5984"
      },
      "geometry": {
        "type": "Point",
        "coordinates": [
          -113.49303499220476,
          -9.056055428476476
        ]
      }
    },
    {
      "type": "Feature",
      "properties": {
        "norad_id": 66432,
        "name": "STARLINK-35446",
        "group": "last-30-days",
        "lat": -17.251586489004907,
        "lon": -103.90645068720588,
        "alt_km": 445.2424535191376,
        "timestamp": "2025-12-11T05:00:25.073914+00:00",
        "meta_object_name": "STARLINK-35446",
        "meta_object_id": "2025-259L",
        "meta_epoch": "2025-12-10T22:00:03.000096",
        "meta_mean_motion": 15.40756572,
        "meta_eccentricity": 0.00012662,
        "meta_inclination": 43.0002,
        "meta_ra_of_asc_node": 58.3103,
        "meta_arg_of_pericenter": 250.9233,
        "meta_mean_anomaly": 133.7031,
        "meta_ephemeris_type": 0,
        "meta_classification_type": "U",
        "meta_norad_cat_id": 66432,
        "meta_element_set_no": 999,
        "meta_rev_at_epoch": 598,
        "meta_bstar": -0.0035068349,
        "meta_mean_motion_dot": -0.00144326,
        "meta_mean_motion_ddot": 0,
        "tle_line1": "1 66432U 25259L   25344.91670139 -.00144326  00000+0 -35068-2 0  9993",
        "tle_line2": "2 66432  43.0002  58.3103 0001266 250.9233 133.7031 15.40756572  5983"
      },
      "geometry": {
        "type": "Point",
        "coordinates": [
          -103.90645068720588,
          -17.251586489004907
        ]
      }
    },
    {
      "type": "Feature",
      "properties": {
        "norad_id": 66433,
        "name": "STARLINK-35457",
        "group": "last-30-days",
        "lat": -24.947734475842843,
        "lon": -93.45345520778021,
        "alt_km": 445.7243817704357,
        "timestamp": "2025-12-11T05:00:25.073927+00:00",
        "meta_object_name": "STARLINK-35457",
        "meta_object_id": "2025-259M",
        "meta_epoch": "2025-12-10T22:00:03.000096",
        "meta_mean_motion": 15.40763141,
        "meta_eccentricity": 0.00013511,
        "meta_inclination": 43.0001,
        "meta_ra_of_asc_node": 58.2811,
        "meta_arg_of_pericenter": 252.2747,
        "meta_mean_anomaly": 144.7897,
        "meta_ephemeris_type": 0,
        "meta_classification_type": "U",
        "meta_norad_cat_id": 66433,
        "meta_element_set_no": 999,
        "meta_rev_at_epoch": 598,
        "meta_bstar": -0.0036949189,
        "meta_mean_motion_dot": -0.00151934,
        "meta_mean_motion_ddot": 0,
        "tle_line1": "1 66433U 25259M   25344.91670139 -.00151934  00000+0 -36949-2 0  9996",
        "tle_line2": "2 66433  43.0001  58.2811 0001351 252.2747 144.7897 15.40763141  5980"
      },
      "geometry": {
        "type": "Point",
        "coordinates": [
          -93.45345520778021,
          -24.947734475842843
        ]
      }
    },
    {
      "type": "Feature",
      "properties": {
        "norad_id": 66434,
        "name": "STARLINK-35389",
        "group": "last-30-days",
        "lat": -31.816201300929514,
        "lon": -81.68997973270042,
        "alt_km": 446.1894808927009,
        "timestamp": "2025-12-11T05:00:25.073939+00:00",
        "meta_object_name": "STARLINK-35389",
        "meta_object_id": "2025-259N",
        "meta_epoch": "2025-12-10T22:00:03.000096",
        "meta_mean_motion": 15.40639512,
        "meta_eccentricity": 0.00014876,
        "meta_inclination": 43.0002,
        "meta_ra_of_asc_node": 58.25,
        "meta_arg_of_pericenter": 264.7831,
        "meta_mean_anomaly": 144.8029,
        "meta_ephemeris_type": 0,
        "meta_classification_type": "U",
        "meta_norad_cat_id": 66434,
        "meta_element_set_no": 999,
        "meta_rev_at_epoch": 598,
        "meta_bstar": 0.00047151562,
        "meta_mean_motion_dot": 0.00019403,
        "meta_mean_motion_ddot": 0,
        "tle_line1": "1 66434U 25259N   25344.91670139  .00019403  00000+0  47152-3 0  9998",
        "tle_line2": "2 66434  43.0002  58.2500 0001487 264.7831 144.8029 15.40639512  5981"
      },
      "geometry": {
        "type": "Point",
        "coordinates": [
          -81.68997973270042,
          -31.816201300929514
        ]
      }
    },
    {
      "type": "Feature",
      "properties": {
        "norad_id": 66435,
        "name": "STARLINK-35502",
        "group": "last-30-days",
        "lat": -37.43106923504459,
        "lon": -68.23775515412544,
        "alt_km": 446.5519656936758,
        "timestamp": "2025-12-11T05:00:25.073949+00:00",
        "meta_object_name": "STARLINK-35502",
        "meta_object_id": "2025-259P",
        "meta_epoch": "2025-12-10T22:00:03.000096",
        "meta_mean_motion": 15.40754975,
        "meta_eccentricity": 0.00011287,
        "meta_inclination": 43.0002,
        "meta_ra_of_asc_node": 58.2211,
        "meta_arg_of_pericenter": 266.3675,
        "meta_mean_anomaly": 155.5747,
        "meta_ephemeris_type": 0,
        "meta_classification_type": "U",
        "meta_norad_cat_id": 66435,
        "meta_element_set_no": 999,
        "meta_rev_at_epoch": 598,
        "meta_bstar": -0.0034068334,
        "meta_mean_motion_dot": -0.00140283,
        "meta_mean_motion_ddot": 0,
        "tle_line1": "1 66435U 25259P   25344.91670139 -.00140283  00000+0 -34068-2 0  9993",
        "tle_line2": "2 66435  43.0002  58.2211 0001128 266.3675 155.5747 15.40754975  5984"
      },
      "geometry": {
        "type": "Point",
        "coordinates": [
          -68.23775515412544,
          -37.43106923504459
        ]
      }
    }
  ]
}